STARLINK-36360          
1 68402U 26063Y   26095.83336806 -.01919136  00000+0 -80763-2 0  9993
2 68402  97.2798 236.8896 0001575  92.1070 154.2265 15.88654490  2820
STARLINK-37218          
1 68403U 26063Z   26095.83336806 -.01933503  00000+0 -80525-2 0  9994
2 68403  97.2801 236.8938 0001536  81.3818 172.1276 15.88888616  2820
STARLINK-37188          
1 68404U 26063AA  26095.83336806 -.01928953  00000+0 -80695-2 0  9996
2 68404  97.2798 236.8916 0001653  81.1571 168.6294 15.88789793  2822
SHIYAN-33               
1 68405U 26064A   26095.67790941  .00007263  00000+0  30880-3 0  9995
2 68405  97.4650 171.5774 0013830 195.1272 164.9553 15.23250418  1454
LPNTSAT-001 (IOD-1)     
1 68408U 26065A   26091.17010600  .00004750  00000+0  23469-3 0  9990
2 68408  97.4137 333.2788 0015408 273.4606  86.4866 15.18233471   574
LPNTSAT-002 (IOD-2)     
1 68409U 26065B   26092.42247422  .00001915  00000+0  96696-4 0  9997
2 68409  97.4055 334.5080 0012738 262.3917  97.5871 15.18229138   741
ELECTRON KICK STAGE R/B 
1 68411U 26065D   26093.44277751  .00267226  22379-5  34497-3 0  9999
2 68411  97.4160 336.0543 0176039  10.7329 349.7619 15.83817593   965
XINZHENGCHENG-01        
1 68412U 26066A   26095.88851606  .00001744  00000+0  18381-3 0  9994
2 68412  84.9615 273.7470 0026791 142.2190 218.0921 14.88406425   971
LIJIAN-2 R/B            
1 68413U 26066B   26095.77163895  .03243171 -14550-5  27327-3 0  9996
2 68413  84.6989 273.4923 0472946 188.9006 170.3649 15.35895725   967
2026-066C               
1 68414U 26066C   26095.88833016  .00001836  00000+0  19325-3 0  9992
2 68414  84.9615 273.7468 0027364 142.5658 217.7479 14.88491653   970
SL-4 R/B                
1 68537U 26061S   26095.80760543  .00216787  16219-4  61298-3 0  9992
2 68537  82.3045  93.8607 0023640  21.8075 338.4198 15.92850045  2089
TACHELES                
1 68539U 26069B   26092.55069444 -.00190496  11727-5 -71298-2 0  9993
2 68539  28.3448 359.8421 8430033  77.7942 194.3023  1.02407762    02
SWC-1                   
1 68540U 26069C   26092.51428241 -.00154659  00000+0 -17117+1 0  9990
2 68540  28.3462 359.8168 8375109  77.1630 217.7352  1.01595625    08
K-RADCUBE               
1 68541U 26069D   26092.67815972 -.00078411  19505-5 -17218-4 0  9992
2 68541  28.3341 359.8703 8450105  77.6642 243.1767  1.02517944    33
MERIDIAN-M 21L          
1 68571U 26071A   26093.32069436 -.00001265  00000+0  16587-2 0  9999
2 68571  62.7917 238.8364 7241466 284.9481  10.7459  1.98618778    13
FREGAT R/B              
1 68572U 26071B   26093.32132148 -.00001541  00000+0  35052-3 0  9997
2 68572  63.0589 237.9448 7313819 284.9724  10.3188  2.01041412    13
