[{"OBJECT_NAME":"STARLINK-36360","OBJECT_ID":"2026-063Y","EPOCH":"2026-04-05T20:00:03.000384","MEAN_MOTION":15.8865449,"ECCENTRICITY":0.0001575,"INCLINATION":97.2798,"RA_OF_ASC_NODE":236.8896,"ARG_OF_PERICENTER":92.107,"MEAN_ANOMALY":154.2265,"EPHEMERIS_TYPE":0,"CLASSIFICATION_TYPE":"U","NORAD_CAT_ID":68402,"ELEMENT_SET_NO":999,"REV_AT_EPOCH":282,"BSTAR":-0.0080763,"MEAN_MOTION_DOT":-0.01919136,"MEAN_MOTION_DDOT":0},{"OBJECT_NAME":"STARLINK-37218","OBJECT_ID":"2026-063Z","EPOCH":"2026-04-05T20:00:03.000384","MEAN_MOTION":15.88888616,"ECCENTRICITY":0.0001536,"INCLINATION":97.2801,"RA_OF_ASC_NODE":236.8938,"ARG_OF_PERICENTER":81.3818,"MEAN_ANOMALY":172.1276,"EPHEMERIS_TYPE":0,"CLASSIFICATION_TYPE":"U","NORAD_CAT_ID":68403,"ELEMENT_SET_NO":999,"REV_AT_EPOCH":282,"BSTAR":-0.0080525,"MEAN_MOTION_DOT":-0.01933503,"MEAN_MOTION_DDOT":0},{"OBJECT_NAME":"STARLINK-37188","OBJECT_ID":"2026-063AA","EPOCH":"2026-04-05T20:00:03.000384","MEAN_MOTION":15.88789793,"ECCENTRICITY":0.0001653,"INCLINATION":97.2798,"RA_OF_ASC_NODE":236.8916,"ARG_OF_PERICENTER":81.1571,"MEAN_ANOMALY":168.6294,"EPHEMERIS_TYPE":0,"CLASSIFICATION_TYPE":"U","NORAD_CAT_ID":68404,"ELEMENT_SET_NO":999,"REV_AT_EPOCH":282,"BSTAR":-0.0080695,"MEAN_MOTION_DOT":-0.01928953,"MEAN_MOTION_DDOT":0},{"OBJECT_NAME":"SHIYAN-33","OBJECT_ID":"2026-064A","EPOCH":"2026-04-05T16:16:11.373024","MEAN_MOTION":15.23250418,"ECCENTRICITY":0.001383,"INCLINATION":97.465,"RA_OF_ASC_NODE":171.5774,"ARG_OF_PERICENTER":195.1272,"MEAN_ANOMALY":164.9553,"EPHEMERIS_TYPE":0,"CLASSIFICATION_TYPE":"U","NORAD_CAT_ID":68405,"ELEMENT_SET_NO":999,"REV_AT_EPOCH":145,"BSTAR":0.0003088,"MEAN_MOTION_DOT":7.263e-5,"MEAN_MOTION_DDOT":0},{"OBJECT_NAME":"LPNTSAT-001 (IOD-1)","OBJECT_ID":"2026-065A","EPOCH":"2026-04-01T04:04:57.158400","MEAN_MOTION":15.18233471,"ECCENTRICITY":0.0015408,"INCLINATION":97.4137,"RA_OF_ASC_NODE":333.2788,"ARG_OF_PERICENTER":273.4606,"MEAN_ANOMALY":86.4866,"EPHEMERIS_TYPE":0,"CLASSIFICATION_TYPE":"U","NORAD_CAT_ID":68408,"ELEMENT_SET_NO":999,"REV_AT_EPOCH":57,"BSTAR":0.00023469,"MEAN_MOTION_DOT":4.75e-5,"MEAN_MOTION_DDOT":0},{"OBJECT_NAME":"LPNTSAT-002 (IOD-2)","OBJECT_ID":"2026-065B","EPOCH":"2026-04-02T10:08:21.772608","MEAN_MOTION":15.18229138,"ECCENTRICITY":0.00127389,"INCLINATION":97.4055,"RA_OF_ASC_NODE":334.508,"ARG_OF_PERICENTER":262.3917,"MEAN_ANOMALY":97.5871,"EPHEMERIS_TYPE":0,"CLASSIFICATION_TYPE":"U","NORAD_CAT_ID":68409,"ELEMENT_SET_NO":999,"REV_AT_EPOCH":74,"BSTAR":9.6695715e-5,"MEAN_MOTION_DOT":1.915e-5,"MEAN_MOTION_DDOT":0},{"OBJECT_NAME":"ELECTRON KICK STAGE R/B","OBJECT_ID":"2026-065D","EPOCH":"2026-04-03T10:37:35.976864","MEAN_MOTION":15.83817593,"ECCENTRICITY":0.01760393,"INCLINATION":97.416,"RA_OF_ASC_NODE":336.0543,"ARG_OF_PERICENTER":10.7329,"MEAN_ANOMALY":349.7619,"EPHEMERIS_TYPE":0,"CLASSIFICATION_TYPE":"U","NORAD_CAT_ID":68411,"ELEMENT_SET_NO":999,"REV_AT_EPOCH":96,"BSTAR":0.00034496954,"MEAN_MOTION_DOT":0.00267226,"MEAN_MOTION_DDOT":2.237865e-6},{"OBJECT_NAME":"XINZHENGCHENG-01","OBJECT_ID":"2026-066A","EPOCH":"2026-04-05T21:19:27.787584","MEAN_MOTION":14.88406425,"ECCENTRICITY":0.0026791,"INCLINATION":84.9615,"RA_OF_ASC_NODE":273.747,"ARG_OF_PERICENTER":142.219,"MEAN_ANOMALY":218.0921,"EPHEMERIS_TYPE":0,"CLASSIFICATION_TYPE":"U","NORAD_CAT_ID":68412,"ELEMENT_SET_NO":999,"REV_AT_EPOCH":97,"BSTAR":0.00018381,"MEAN_MOTION_DOT":1.744e-5,"MEAN_MOTION_DDOT":0},{"OBJECT_NAME":"LIJIAN-2 R/B","OBJECT_ID":"2026-066B","EPOCH":"2026-04-05T18:31:09.605280","MEAN_MOTION":15.35895725,"ECCENTRICITY":0.0472946,"INCLINATION":84.6989,"RA_OF_ASC_NODE":273.4923,"ARG_OF_PERICENTER":188.9006,"MEAN_ANOMALY":170.3649,"EPHEMERIS_TYPE":0,"CLASSIFICATION_TYPE":"U","NORAD_CAT_ID":68413,"ELEMENT_SET_NO":999,"REV_AT_EPOCH":96,"BSTAR":0.00027327,"MEAN_MOTION_DOT":0.03243171,"MEAN_MOTION_DDOT":-1.455e-6},{"OBJECT_NAME":"2026-066C","OBJECT_ID":"2026-066C","EPOCH":"2026-04-05T21:19:11.725824","MEAN_MOTION":14.88491653,"ECCENTRICITY":0.0027364,"INCLINATION":84.9615,"RA_OF_ASC_NODE":273.7468,"ARG_OF_PERICENTER":142.5658,"MEAN_ANOMALY":217.7479,"EPHEMERIS_TYPE":0,"CLASSIFICATION_TYPE":"U","NORAD_CAT_ID":68414,"ELEMENT_SET_NO":999,"REV_AT_EPOCH":97,"BSTAR":0.00019325,"MEAN_MOTION_DOT":1.836e-5,"MEAN_MOTION_DDOT":0},{"OBJECT_NAME":"SL-4 R/B","OBJECT_ID":"2026-061S","EPOCH":"2026-04-05T19:22:57.109152","MEAN_MOTION":15.92850045,"ECCENTRICITY":0.002364,"INCLINATION":82.3045,"RA_OF_ASC_NODE":93.8607,"ARG_OF_PERICENTER":21.8075,"MEAN_ANOMALY":338.4198,"EPHEMERIS_TYPE":0,"CLASSIFICATION_TYPE":"U","NORAD_CAT_ID":68537,"ELEMENT_SET_NO":999,"REV_AT_EPOCH":208,"BSTAR":0.00061298,"MEAN_MOTION_DOT":0.00216787,"MEAN_MOTION_DDOT":1.6219e-5},{"OBJECT_NAME":"TACHELES","OBJECT_ID":"2026-069B","EPOCH":"2026-04-02T13:12:59.999616","MEAN_MOTION":1.02407762,"ECCENTRICITY":0.8430033,"INCLINATION":28.3448,"RA_OF_ASC_NODE":359.8421,"ARG_OF_PERICENTER":77.7942,"MEAN_ANOMALY":194.3023,"EPHEMERIS_TYPE":0,"CLASSIFICATION_TYPE":"U","NORAD_CAT_ID":68539,"ELEMENT_SET_NO":999,"REV_AT_EPOCH":0,"BSTAR":-0.0071298,"MEAN_MOTION_DOT":-0.00190496,"MEAN_MOTION_DDOT":1.1727e-6},{"OBJECT_NAME":"SWC-1","OBJECT_ID":"2026-069C","EPOCH":"2026-04-02T12:20:34.000224","MEAN_MOTION":1.01595625,"ECCENTRICITY":0.8375109,"INCLINATION":28.3462,"RA_OF_ASC_NODE":359.8168,"ARG_OF_PERICENTER":77.163,"MEAN_ANOMALY":217.7352,"EPHEMERIS_TYPE":0,"CLASSIFICATION_TYPE":"U","NORAD_CAT_ID":68540,"ELEMENT_SET_NO":999,"REV_AT_EPOCH":0,"BSTAR":-1.7117,"MEAN_MOTION_DOT":-0.00154659,"MEAN_MOTION_DDOT":0},{"OBJECT_NAME":"K-RADCUBE","OBJECT_ID":"2026-069D","EPOCH":"2026-04-02T16:16:32.999808","MEAN_MOTION":1.02517944,"ECCENTRICITY":0.8450105,"INCLINATION":28.3341,"RA_OF_ASC_NODE":359.8703,"ARG_OF_PERICENTER":77.6642,"MEAN_ANOMALY":243.1767,"EPHEMERIS_TYPE":0,"CLASSIFICATION_TYPE":"U","NORAD_CAT_ID":68541,"ELEMENT_SET_NO":999,"REV_AT_EPOCH":3,"BSTAR":-1.7218e-5,"MEAN_MOTION_DOT":-0.00078411,"MEAN_MOTION_DDOT":1.9505e-6},{"OBJECT_NAME":"MERIDIAN-M 21L","OBJECT_ID":"2026-071A","EPOCH":"2026-04-03T07:41:47.992704","MEAN_MOTION":1.98618778,"ECCENTRICITY":0.7241466,"INCLINATION":62.7917,"RA_OF_ASC_NODE":238.8364,"ARG_OF_PERICENTER":284.9481,"MEAN_ANOMALY":10.7459,"EPHEMERIS_TYPE":0,"CLASSIFICATION_TYPE":"U","NORAD_CAT_ID":68571,"ELEMENT_SET_NO":999,"REV_AT_EPOCH":1,"BSTAR":0.0016587,"MEAN_MOTION_DOT":-1.265e-5,"MEAN_MOTION_DDOT":0},{"OBJECT_NAME":"FREGAT R/B","OBJECT_ID":"2026-071B","EPOCH":"2026-04-03T07:42:42.175872","MEAN_MOTION":2.01041412,"ECCENTRICITY":0.73138199,"INCLINATION":63.0589,"RA_OF_ASC_NODE":237.9448,"ARG_OF_PERICENTER":284.9724,"MEAN_ANOMALY":10.3188,"EPHEMERIS_TYPE":0,"CLASSIFICATION_TYPE":"U","NORAD_CAT_ID":68572,"ELEMENT_SET_NO":999,"REV_AT_EPOCH":1,"BSTAR":0.00035051942,"MEAN_MOTION_DOT":-1.541e-5,"MEAN_MOTION_DDOT":0}]
